STARLINK-11290 [DTC]    
1 61000U 24158L   25211.54243580 -.00000234  00000+0  29349-5 0  9990
2 61000  53.1583 296.3875 0001451  51.0876 309.0271 15.69708924 52765
STARLINK-11274 [DTC]    
1 61001U 24158M   25212.23297799  .00000726  00000+0  10844-4 0  9993
2 61001  53.1575 292.8675 0000683  64.0176 296.0912 15.69711797 52836
STARLINK-11288 [DTC]    
1 61002U 24158N   25212.22807317  .00000548  00000+0  93850-5 0  9997
2 61002  53.1589 292.8380 0001205  89.4137 270.7019 15.69714044 52828
STARLINK-32279          
1 61003U 24158P   25211.77014255 -.00000114  00000+0  82869-5 0  9996
2 61003  53.1612  16.3798 0001021  94.9164 265.1954 15.30191771 51677
STARLINK-32336          
1 61004U 24158Q   25211.76592537 -.00000169  00000+0  64275-5 0  9991
2 61004  53.1623  16.3547 0001278  91.7707 268.3440 15.30187456 51674
STARLINK-32284          
1 61005U 24158R   25211.77331160 -.00000623  00000+0 -89006-5 0  9991
2 61005  53.1621  16.4021 0001239  96.1204 263.9938 15.30189128 51603
STARLINK-32282          
1 61006U 24158S   25211.75642663 -.00000219  00000+0  47152-5 0  9999
2 61006  53.1604  16.2907 0001032  88.3997 271.7122 15.30191037 51670
STARLINK-32360          
1 61007U 24158T   25212.02603541  .00000736  00000+0  36964-4 0  9994
2 61007  53.1611 359.8362 0001040  81.4329 278.6789 15.30197000 51875
STARLINK-32340          
1 61008U 24158U   25212.17574761  .00000301  00000+0  22295-4 0  9992
2 61008  53.1617  14.5714 0001157  84.0864 276.0269 15.30191878 51681
STARLINK-32357          
1 61009U 24158V   25211.91481048  .00122009  00000+0  36227-2 0  9997
2 61009  53.1600 335.5869 0001560  69.1929 290.9240 15.33882964 52181
STARLINK-32347          
1 61010U 24158W   25212.15147510  .00000514  00000+0  29455-4 0  9992
2 61010  53.1616  14.4886 0000722  80.0297 280.0785 15.30197598 51688
STARLINK-11286 [DTC]    
1 61050U 24164A   25211.83384071  .00000182  00000+0  63550-5 0  9998
2 61050  53.1593 324.9619 0000724  89.5058 270.6043 15.69715325 50575
STARLINK-11252 [DTC]    
1 61051U 24164B   25211.57425995  .00000660  00000+0  10301-4 0  9997
2 61051  53.1593 326.1822 0001018 102.0676 258.0456 15.69712115 50538
STARLINK-11284 [DTC]    
1 61052U 24164C   25212.01503647  .00000598  00000+0  97925-5 0  9997
2 61052  53.1580 323.9528 0000860  68.7557 291.3552 15.69716303 50601
STARLINK-11230 [DTC]    
1 61053U 24164D   25211.56445437  .00000407  00000+0  82189-5 0  9994
2 61053  53.1587 326.1187 0000988  86.1640 273.9490 15.69704434 50534
STARLINK-11294 [DTC]    
1 61054U 24164E   25211.62321140  .00000995  00000+0  13066-4 0  9995
2 61054  53.1593 325.7709 0000872 112.5195 247.5915 15.69713286 50543
STARLINK-11268 [DTC]    
1 61055U 24164F   25211.61830906 -.00001340  00000+0 -62017-5 0  9998
2 61055  53.1584 325.7377 0001013  52.8421 307.2689 15.69713832 50540
