[{"OBJECT_NAME":"STARLINK-11290 [DTC]","OBJECT_ID":"2024-158L","EPOCH":"2025-07-30T13:01:06.453120","MEAN_MOTION":15.69708924,"ECCENTRICITY":0.0001451,"INCLINATION":53.1583,"RA_OF_ASC_NODE":296.3875,"ARG_OF_PERICENTER":51.0876,"MEAN_ANOMALY":309.0271,"EPHEMERIS_TYPE":0,"CLASSIFICATION_TYPE":"U","NORAD_CAT_ID":61000,"ELEMENT_SET_NO":999,"REV_AT_EPOCH":5276,"BSTAR":2.9349e-6,"MEAN_MOTION_DOT":-2.34e-6,"MEAN_MOTION_DDOT":0},{"OBJECT_NAME":"STARLINK-11274 [DTC]","OBJECT_ID":"2024-158M","EPOCH":"2025-07-31T05:35:29.298336","MEAN_MOTION":15.69711797,"ECCENTRICITY":6.83e-5,"INCLINATION":53.1575,"RA_OF_ASC_NODE":292.8675,"ARG_OF_PERICENTER":64.0176,"MEAN_ANOMALY":296.0912,"EPHEMERIS_TYPE":0,"CLASSIFICATION_TYPE":"U","NORAD_CAT_ID":61001,"ELEMENT_SET_NO":999,"REV_AT_EPOCH":5283,"BSTAR":1.0844e-5,"MEAN_MOTION_DOT":7.26e-6,"MEAN_MOTION_DDOT":0},{"OBJECT_NAME":"STARLINK-11288 [DTC]","OBJECT_ID":"2024-158N","EPOCH":"2025-07-31T05:28:25.521888","MEAN_MOTION":15.69714044,"ECCENTRICITY":0.0001205,"INCLINATION":53.1589,"RA_OF_ASC_NODE":292.838,"ARG_OF_PERICENTER":89.4137,"MEAN_ANOMALY":270.7019,"EPHEMERIS_TYPE":0,"CLASSIFICATION_TYPE":"U","NORAD_CAT_ID":61002,"ELEMENT_SET_NO":999,"REV_AT_EPOCH":5282,"BSTAR":9.385e-6,"MEAN_MOTION_DOT":5.48e-6,"MEAN_MOTION_DDOT":0},{"OBJECT_NAME":"STARLINK-32279","OBJECT_ID":"2024-158P","EPOCH":"2025-07-30T18:29:00.316320","MEAN_MOTION":15.30191771,"ECCENTRICITY":0.0001021,"INCLINATION":53.1612,"RA_OF_ASC_NODE":16.3798,"ARG_OF_PERICENTER":94.9164,"MEAN_ANOMALY":265.1954,"EPHEMERIS_TYPE":0,"CLASSIFICATION_TYPE":"U","NORAD_CAT_ID":61003,"ELEMENT_SET_NO":999,"REV_AT_EPOCH":5167,"BSTAR":8.2869e-6,"MEAN_MOTION_DOT":-1.14e-6,"MEAN_MOTION_DDOT":0},{"OBJECT_NAME":"STARLINK-32336","OBJECT_ID":"2024-158Q","EPOCH":"2025-07-30T18:22:55.951968","MEAN_MOTION":15.30187456,"ECCENTRICITY":0.0001278,"INCLINATION":53.1623,"RA_OF_ASC_NODE":16.3547,"ARG_OF_PERICENTER":91.7707,"MEAN_ANOMALY":268.344,"EPHEMERIS_TYPE":0,"CLASSIFICATION_TYPE":"U","NORAD_CAT_ID":61004,"ELEMENT_SET_NO":999,"REV_AT_EPOCH":5167,"BSTAR":6.4275e-6,"MEAN_MOTION_DOT":-1.69e-6,"MEAN_MOTION_DDOT":0},{"OBJECT_NAME":"STARLINK-32284","OBJECT_ID":"2024-158R","EPOCH":"2025-07-30T18:33:34.122240","MEAN_MOTION":15.30189128,"ECCENTRICITY":0.0001239,"INCLINATION":53.1621,"RA_OF_ASC_NODE":16.4021,"ARG_OF_PERICENTER":96.1204,"MEAN_ANOMALY":263.9938,"EPHEMERIS_TYPE":0,"CLASSIFICATION_TYPE":"U","NORAD_CAT_ID":61005,"ELEMENT_SET_NO":999,"REV_AT_EPOCH":5160,"BSTAR":-8.9006e-6,"MEAN_MOTION_DOT":-6.23e-6,"MEAN_MOTION_DDOT":0},{"OBJECT_NAME":"STARLINK-32282","OBJECT_ID":"2024-158S","EPOCH":"2025-07-30T18:09:15.260832","MEAN_MOTION":15.30191037,"ECCENTRICITY":0.0001032,"INCLINATION":53.1604,"RA_OF_ASC_NODE":16.2907,"ARG_OF_PERICENTER":88.3997,"MEAN_ANOMALY":271.7122,"EPHEMERIS_TYPE":0,"CLASSIFICATION_TYPE":"U","NORAD_CAT_ID":61006,"ELEMENT_SET_NO":999,"REV_AT_EPOCH":5167,"BSTAR":4.7152e-6,"MEAN_MOTION_DOT":-2.19e-6,"MEAN_MOTION_DDOT":0},{"OBJECT_NAME":"STARLINK-32360","OBJECT_ID":"2024-158T","EPOCH":"2025-07-31T00:37:29.459424","MEAN_MOTION":15.30197,"ECCENTRICITY":0.000104,"INCLINATION":53.1611,"RA_OF_ASC_NODE":359.8362,"ARG_OF_PERICENTER":81.4329,"MEAN_ANOMALY":278.6789,"EPHEMERIS_TYPE":0,"CLASSIFICATION_TYPE":"U","NORAD_CAT_ID":61007,"ELEMENT_SET_NO":999,"REV_AT_EPOCH":5187,"BSTAR":3.6964e-5,"MEAN_MOTION_DOT":7.36e-6,"MEAN_MOTION_DDOT":0},{"OBJECT_NAME":"STARLINK-32340","OBJECT_ID":"2024-158U","EPOCH":"2025-07-31T04:13:04.593504","MEAN_MOTION":15.30191878,"ECCENTRICITY":0.0001157,"INCLINATION":53.1617,"RA_OF_ASC_NODE":14.5714,"ARG_OF_PERICENTER":84.0864,"MEAN_ANOMALY":276.0269,"EPHEMERIS_TYPE":0,"CLASSIFICATION_TYPE":"U","NORAD_CAT_ID":61008,"ELEMENT_SET_NO":999,"REV_AT_EPOCH":5168,"BSTAR":2.2295e-5,"MEAN_MOTION_DOT":3.01e-6,"MEAN_MOTION_DDOT":0},{"OBJECT_NAME":"STARLINK-32357","OBJECT_ID":"2024-158V","EPOCH":"2025-07-30T21:57:19.625472","MEAN_MOTION":15.33882964,"ECCENTRICITY":0.000156,"INCLINATION":53.16,"RA_OF_ASC_NODE":335.5869,"ARG_OF_PERICENTER":69.1929,"MEAN_ANOMALY":290.924,"EPHEMERIS_TYPE":0,"CLASSIFICATION_TYPE":"U","NORAD_CAT_ID":61009,"ELEMENT_SET_NO":999,"REV_AT_EPOCH":5218,"BSTAR":0.0036227,"MEAN_MOTION_DOT":0.00122009,"MEAN_MOTION_DDOT":0},{"OBJECT_NAME":"STARLINK-32347","OBJECT_ID":"2024-158W","EPOCH":"2025-07-31T03:38:07.448640","MEAN_MOTION":15.30197598,"ECCENTRICITY":7.22e-5,"INCLINATION":53.1616,"RA_OF_ASC_NODE":14.4886,"ARG_OF_PERICENTER":80.0297,"MEAN_ANOMALY":280.0785,"EPHEMERIS_TYPE":0,"CLASSIFICATION_TYPE":"U","NORAD_CAT_ID":61010,"ELEMENT_SET_NO":999,"REV_AT_EPOCH":5168,"BSTAR":2.9455e-5,"MEAN_MOTION_DOT":5.14e-6,"MEAN_MOTION_DDOT":0},{"OBJECT_NAME":"STARLINK-11286 [DTC]","OBJECT_ID":"2024-164A","EPOCH":"2025-07-30T20:00:43.837344","MEAN_MOTION":15.69715325,"ECCENTRICITY":7.24e-5,"INCLINATION":53.1593,"RA_OF_ASC_NODE":324.9619,"ARG_OF_PERICENTER":89.5058,"MEAN_ANOMALY":270.6043,"EPHEMERIS_TYPE":0,"CLASSIFICATION_TYPE":"U","NORAD_CAT_ID":61050,"ELEMENT_SET_NO":999,"REV_AT_EPOCH":5057,"BSTAR":6.355e-6,"MEAN_MOTION_DOT":1.82e-6,"MEAN_MOTION_DDOT":0},{"OBJECT_NAME":"STARLINK-11252 [DTC]","OBJECT_ID":"2024-164B","EPOCH":"2025-07-30T13:46:56.059680","MEAN_MOTION":15.69712115,"ECCENTRICITY":0.0001018,"INCLINATION":53.1593,"RA_OF_ASC_NODE":326.1822,"ARG_OF_PERICENTER":102.0676,"MEAN_ANOMALY":258.0456,"EPHEMERIS_TYPE":0,"CLASSIFICATION_TYPE":"U","NORAD_CAT_ID":61051,"ELEMENT_SET_NO":999,"REV_AT_EPOCH":5053,"BSTAR":1.0301e-5,"MEAN_MOTION_DOT":6.6e-6,"MEAN_MOTION_DDOT":0},{"OBJECT_NAME":"STARLINK-11284 [DTC]","OBJECT_ID":"2024-164C","EPOCH":"2025-07-31T00:21:39.151008","MEAN_MOTION":15.69716303,"ECCENTRICITY":8.6e-5,"INCLINATION":53.158,"RA_OF_ASC_NODE":323.9528,"ARG_OF_PERICENTER":68.7557,"MEAN_ANOMALY":291.3552,"EPHEMERIS_TYPE":0,"CLASSIFICATION_TYPE":"U","NORAD_CAT_ID":61052,"ELEMENT_SET_NO":999,"REV_AT_EPOCH":5060,"BSTAR":9.7925e-6,"MEAN_MOTION_DOT":5.98e-6,"MEAN_MOTION_DDOT":0},{"OBJECT_NAME":"STARLINK-11230 [DTC]","OBJECT_ID":"2024-164D","EPOCH":"2025-07-30T13:32:48.857568","MEAN_MOTION":15.69704434,"ECCENTRICITY":9.88e-5,"INCLINATION":53.1587,"RA_OF_ASC_NODE":326.1187,"ARG_OF_PERICENTER":86.164,"MEAN_ANOMALY":273.949,"EPHEMERIS_TYPE":0,"CLASSIFICATION_TYPE":"U","NORAD_CAT_ID":61053,"ELEMENT_SET_NO":999,"REV_AT_EPOCH":5053,"BSTAR":8.2189e-6,"MEAN_MOTION_DOT":4.07e-6,"MEAN_MOTION_DDOT":0},{"OBJECT_NAME":"STARLINK-11294 [DTC]","OBJECT_ID":"2024-164E","EPOCH":"2025-07-30T14:57:25.464960","MEAN_MOTION":15.69713286,"ECCENTRICITY":8.72e-5,"INCLINATION":53.1593,"RA_OF_ASC_NODE":325.7709,"ARG_OF_PERICENTER":112.5195,"MEAN_ANOMALY":247.5915,"EPHEMERIS_TYPE":0,"CLASSIFICATION_TYPE":"U","NORAD_CAT_ID":61054,"ELEMENT_SET_NO":999,"REV_AT_EPOCH":5054,"BSTAR":1.3066e-5,"MEAN_MOTION_DOT":9.95e-6,"MEAN_MOTION_DDOT":0},{"OBJECT_NAME":"STARLINK-11268 [DTC]","OBJECT_ID":"2024-164F","EPOCH":"2025-07-30T14:50:21.902784","MEAN_MOTION":15.69713832,"ECCENTRICITY":0.0001013,"INCLINATION":53.1584,"RA_OF_ASC_NODE":325.7377,"ARG_OF_PERICENTER":52.8421,"MEAN_ANOMALY":307.2689,"EPHEMERIS_TYPE":0,"CLASSIFICATION_TYPE":"U","NORAD_CAT_ID":61055,"ELEMENT_SET_NO":999,"REV_AT_EPOCH":5054,"BSTAR":-6.2017e-6,"MEAN_MOTION_DOT":-1.34e-5,"MEAN_MOTION_DDOT":0}]
